start=new Date('2023-01-26T00:00:00.000Z').valueOf();
sats=[{"NORAD_CAT_ID":"54171","REF_FRAME":"TEME","RCS_SIZE":"LARGE","INCLINATION":"53.2155","OBJECT_NAME":"STARLINK-5229","CENTER_NAME":"EARTH","RA_OF_ASC_NODE":"83.1322","REV_AT_EPOCH":"1380","BSTAR":"0.00068171000000","TLE_LINE2":"2 54171  53.2155  83.1322 0000871 103.2014 256.9075 15.08838520 13803","MEAN_MOTION_DOT":"0.00010578","TLE_LINE1":"1 54171U 22141Q   23025.44434696  .00010578  00000-0  68171-3 0  9997","COUNTRY_CODE":"US","FILE":"3761297","APOAPSIS":"540.352","OBJECT_TYPE":"PAYLOAD","ECCENTRICITY":"0.00008710","OBJECT_ID":"2022-141Q","TIME_SYSTEM":"UTC","ARG_OF_PERICENTER":"103.2014","GP_ID":"223691538","MEAN_ANOMALY":"256.9075","ELEMENT_SET_NO":"999","LAUNCH_DATE":"2022-10-28","SEMIMAJOR_AXIS":"6917.885","SITE":"AFWTR","PERIOD":"95.438","MEAN_MOTION":"15.08838520","MEAN_MOTION_DDOT":"0.0000000000000","CLASSIFICATION_TYPE":"U","PERIAPSIS":"539.147","MEAN_ELEMENT_THEORY":"SGP4","EPHEMERIS_TYPE":"0","DECAY_DATE":null,"EPOCH":"2023-01-25T10:39:51.577344"},{"OBJECT_ID":"2022-141R","ECCENTRICITY":"0.00013220","OBJECT_TYPE":"PAYLOAD","GP_ID":"223691286","ARG_OF_PERICENTER":"97.6010","TIME_SYSTEM":"UTC","COUNTRY_CODE":"US","APOAPSIS":"540.652","FILE":"3761297","SITE":"AFWTR","ELEMENT_SET_NO":"999","LAUNCH_DATE":"2022-10-28","MEAN_ANOMALY":"262.5132","SEMIMAJOR_AXIS":"6917.873","MEAN_MOTION":"15.08842518","MEAN_MOTION_DDOT":"0.0000000000000","PERIOD":"95.437","EPHEMERIS_TYPE":"0","EPOCH":"2023-01-25T11:08:19.677696","DECAY_DATE":null,"CLASSIFICATION_TYPE":"U","MEAN_ELEMENT_THEORY":"SGP4","PERIAPSIS":"538.823","INCLINATION":"53.2166","NORAD_CAT_ID":"54172","RCS_SIZE":"LARGE","REF_FRAME":"TEME","CENTER_NAME":"EARTH","RA_OF_ASC_NODE":"78.2723","OBJECT_NAME":"STARLINK-5117","BSTAR":"0.00045662000000","MEAN_MOTION_DOT":"0.00006987","TLE_LINE2":"2 54172  53.2166  78.2723 0001322  97.6010 262.5132 15.08842518 13876","REV_AT_EPOCH":"1387","TLE_LINE1":"1 54172U 22141R   23025.46411664  .00006987  00000-0  45662-3 0  9999"},{"TLE_LINE2":"2 54173  53.2173  76.2596 0000909  87.4997 272.6099 15.08840443 13938","MEAN_MOTION_DOT":"0.00000333","BSTAR":"0.00003899300000","REV_AT_EPOCH":"1393","TLE_LINE1":"1 54173U 22141S   23025.82471463  .00000333  00000-0  38993-4 0  9992","INCLINATION":"53.2173","REF_FRAME":"TEME","RCS_SIZE":"LARGE","NORAD_CAT_ID":"54173","RA_OF_ASC_NODE":"76.2596","CENTER_NAME":"EARTH","OBJECT_NAME":"STARLINK-5242","MEAN_MOTION":"15.08840443","MEAN_MOTION_DDOT":"0.0000000000000","PERIOD":"95.438","DECAY_DATE":null,"EPOCH":"2023-01-25T19:47:35.344032","EPHEMERIS_TYPE":"0","MEAN_ELEMENT_THEORY":"SGP4","PERIAPSIS":"539.115","CLASSIFICATION_TYPE":"U","TIME_SYSTEM":"UTC","ARG_OF_PERICENTER":"87.4997","GP_ID":"223719834","OBJECT_TYPE":"PAYLOAD","ECCENTRICITY":"0.00009090","OBJECT_ID":"2022-141S","FILE":"3761360","APOAPSIS":"540.373","COUNTRY_CODE":"US","SITE":"AFWTR","SEMIMAJOR_AXIS":"6917.879","MEAN_ANOMALY":"272.6099","LAUNCH_DATE":"2022-10-28","ELEMENT_SET_NO":"999"},{"OBJECT_NAME":"STARLINK-5248","CENTER_NAME":"EARTH","RA_OF_ASC_NODE":"58.9297","NORAD_CAT_ID":"54174","REF_FRAME":"TEME","RCS_SIZE":"LARGE","INCLINATION":"53.2163","TLE_LINE1":"1 54174U 22141T   23025.80285180  .00002232  00000-0  20310-4 0  9994","REV_AT_EPOCH":"1417","BSTAR":"0.00002031000000","TLE_LINE2":"2 54174  53.2163  58.9297 0001402  71.1885 288.9287 15.73208958 14175","MEAN_MOTION_DOT":"0.00002232","MEAN_ANOMALY":"288.9287","ELEMENT_SET_NO":"999","LAUNCH_DATE":"2022-10-28","SEMIMAJOR_AXIS":"6727.870","SITE":"AFWTR","COUNTRY_CODE":"US","FILE":"3761360","APOAPSIS":"350.678","OBJECT_TYPE":"PAYLOAD","OBJECT_ID":"2022-141T","ECCENTRICITY":"0.00014020","TIME_SYSTEM":"UTC","ARG_OF_PERICENTER":"71.1885","GP_ID":"223720586","CLASSIFICATION_TYPE":"U","PERIAPSIS":"348.791","MEAN_ELEMENT_THEORY":"SGP4","EPHEMERIS_TYPE":"0","DECAY_DATE":null,"EPOCH":"2023-01-25T19:16:06.395520","PERIOD":"91.533","MEAN_MOTION_DDOT":"0.0000000000000","MEAN_MOTION":"15.73208958"},{"CLASSIFICATION_TYPE":"U","MEAN_ELEMENT_THEORY":"SGP4","PERIAPSIS":"538.916","EPHEMERIS_TYPE":"0","EPOCH":"2023-01-25T12:49:01.062048","DECAY_DATE":null,"PERIOD":"95.437","MEAN_MOTION":"15.08843441","MEAN_MOTION_DDOT":"0.0000000000000","ELEMENT_SET_NO":"999","LAUNCH_DATE":"2022-10-28","MEAN_ANOMALY":"255.9210","SEMIMAJOR_AXIS":"6917.870","SITE":"AFWTR","COUNTRY_CODE":"US","APOAPSIS":"540.553","FILE":"3761297","ECCENTRICITY":"0.00011830","OBJECT_ID":"2022-141U","OBJECT_TYPE":"PAYLOAD","GP_ID":"223691038","ARG_OF_PERICENTER":"104.1914","TIME_SYSTEM":"UTC","TLE_LINE1":"1 54175U 22141U   23025.53404007  .00004250  00000-0  28493-3 0  9997","REV_AT_EPOCH":"1388","BSTAR":"0.00028493000000","MEAN_MOTION_DOT":"0.00004250","TLE_LINE2":"2 54175  53.2154  77.9957 0001183 104.1914 255.9210 15.08843441 13883","OBJECT_NAME":"STARLINK-5256","CENTER_NAME":"EARTH","RA_OF_ASC_NODE":"77.9957","NORAD_CAT_ID":"54175","RCS_SIZE":"LARGE","REF_FRAME":"TEME","INCLINATION":"53.2154"},{"REF_FRAME":"TEME","RCS_SIZE":"LARGE","NORAD_CAT_ID":"54176","INCLINATION":"53.2192","OBJECT_NAME":"STARLINK-5154","RA_OF_ASC_NODE":"78.2041","CENTER_NAME":"EARTH","REV_AT_EPOCH":"1387","TLE_LINE2":"2 54176  53.2192  78.2041 0001263 100.9985 259.1150 15.08834806 13878","MEAN_MOTION_DOT":"0.00000064","BSTAR":"0.00002211400000","TLE_LINE1":"1 54176U 22141V   23025.45306385  .00000064  00000-0  22114-4 0  9993","FILE":"3761297","APOAPSIS":"540.635","COUNTRY_CODE":"US","TIME_SYSTEM":"UTC","ARG_OF_PERICENTER":"100.9985","GP_ID":"223691787","OBJECT_TYPE":"PAYLOAD","ECCENTRICITY":"0.00012630","OBJECT_ID":"2022-141V","SEMIMAJOR_AXIS":"6917.896","MEAN_ANOMALY":"259.1150","ELEMENT_SET_NO":"999","LAUNCH_DATE":"2022-10-28","SITE":"AFWTR","PERIOD":"95.438","MEAN_MOTION_DDOT":"0.0000000000000","MEAN_MOTION":"15.08834806","MEAN_ELEMENT_THEORY":"SGP4","PERIAPSIS":"538.888","CLASSIFICATION_TYPE":"U","DECAY_DATE":null,"EPOCH":"2023-01-25T10:52:24.716640","EPHEMERIS_TYPE":"0"},{"RA_OF_ASC_NODE":"78.2507","CENTER_NAME":"EARTH","OBJECT_NAME":"STARLINK-5186","INCLINATION":"53.2175","RCS_SIZE":"LARGE","REF_FRAME":"TEME","NORAD_CAT_ID":"54177","TLE_LINE1":"1 54177U 22141W   23025.46043476  .00000943  00000-0  77333-4 0  9993","MEAN_MOTION_DOT":"0.00000943","TLE_LINE2":"2 54177  53.2175  78.2507 0001321  75.7769 284.3370 15.08832487 13878","BSTAR":"0.00007733300000","REV_AT_EPOCH":"1387","SITE":"AFWTR","SEMIMAJOR_AXIS":"6917.903","ELEMENT_SET_NO":"999","LAUNCH_DATE":"2022-10-28","MEAN_ANOMALY":"284.3370","ARG_OF_PERICENTER":"75.7769","GP_ID":"223692535","TIME_SYSTEM":"UTC","ECCENTRICITY":"0.00013210","OBJECT_ID":"2022-141W","OBJECT_TYPE":"PAYLOAD","APOAPSIS":"540.682","FILE":"3761297","COUNTRY_CODE":"US","EPOCH":"2023-01-25T11:03:01.563264","DECAY_DATE":null,"EPHEMERIS_TYPE":"0","MEAN_ELEMENT_THEORY":"SGP4","PERIAPSIS":"538.854","CLASSIFICATION_TYPE":"U","MEAN_MOTION_DDOT":"0.0000000000000","MEAN_MOTION":"15.08832487","PERIOD":"95.438"},{"SEMIMAJOR_AXIS":"6922.897","ELEMENT_SET_NO":"999","LAUNCH_DATE":"2022-10-28","MEAN_ANOMALY":"259.4686","SITE":"AFWTR","APOAPSIS":"545.548","FILE":"3761297","COUNTRY_CODE":"US","ARG_OF_PERICENTER":"100.6434","GP_ID":"223692786","TIME_SYSTEM":"UTC","OBJECT_ID":"2022-141X","ECCENTRICITY":"0.00011360","OBJECT_TYPE":"PAYLOAD","MEAN_ELEMENT_THEORY":"SGP4","PERIAPSIS":"543.976","CLASSIFICATION_TYPE":"U","EPOCH":"2023-01-25T11:16:13.659456","DECAY_DATE":null,"EPHEMERIS_TYPE":"0","PERIOD":"95.541","MEAN_MOTION_DDOT":"0.0000000000000","MEAN_MOTION":"15.07200237","OBJECT_NAME":"STARLINK-5164","RA_OF_ASC_NODE":"77.5829","CENTER_NAME":"EARTH","RCS_SIZE":"LARGE","REF_FRAME":"TEME","NORAD_CAT_ID":"54178","INCLINATION":"53.2175","TLE_LINE1":"1 54178U 22141X   23025.46960254  .00002625  00000-0  19101-3 0  9993","REV_AT_EPOCH":"1388","MEAN_MOTION_DOT":"0.00002625","TLE_LINE2":"2 54178  53.2175  77.5829 0001136 100.6434 259.4686 15.07200237 13884","BSTAR":"0.00019101000000"},{"MEAN_MOTION_DDOT":"0.0000000000000","MEAN_MOTION":"15.08841848","PERIOD":"95.437","EPHEMERIS_TYPE":"0","EPOCH":"2023-01-25T10:57:43.029792","DECAY_DATE":null,"CLASSIFICATION_TYPE":"U","MEAN_ELEMENT_THEORY":"SGP4","PERIAPSIS":"538.910","ECCENTRICITY":"0.00011990","OBJECT_ID":"2022-141Y","OBJECT_TYPE":"PAYLOAD","GP_ID":"223691539","ARG_OF_PERICENTER":"94.7569","TIME_SYSTEM":"UTC","COUNTRY_CODE":"US","APOAPSIS":"540.569","FILE":"3761297","SITE":"AFWTR","LAUNCH_DATE":"2022-10-28","ELEMENT_SET_NO":"999","MEAN_ANOMALY":"265.3560","SEMIMAJOR_AXIS":"6917.875","BSTAR":"-0.00003620300000","MEAN_MOTION_DOT":"-0.00000864","TLE_LINE2":"2 54179  53.2165  78.2241 0001199  94.7569 265.3560 15.08841848 13877","REV_AT_EPOCH":"1387","TLE_LINE1":"1 54179U 22141Y   23025.45674803 -.00000864  00000-0 -36203-4 0  9993","INCLINATION":"53.2165","NORAD_CAT_ID":"54179","RCS_SIZE":"LARGE","REF_FRAME":"TEME","CENTER_NAME":"EARTH","RA_OF_ASC_NODE":"78.2241","OBJECT_NAME":"STARLINK-5122"},{"OBJECT_NAME":"STARLINK-5228","RA_OF_ASC_NODE":"76.3068","CENTER_NAME":"EARTH","RCS_SIZE":"LARGE","REF_FRAME":"TEME","NORAD_CAT_ID":"54180","INCLINATION":"53.2170","TLE_LINE1":"1 54180U 22141Z   23025.83208015  .00004150  00000-0  27864-3 0  9997","REV_AT_EPOCH":"1393","MEAN_MOTION_DOT":"0.00004150","TLE_LINE2":"2 54180  53.2170  76.3068 0001226  89.3060 270.8072 15.08840995 13936","BSTAR":"0.00027864000000","SEMIMAJOR_AXIS":"6917.877","LAUNCH_DATE":"2022-10-28","ELEMENT_SET_NO":"999","MEAN_ANOMALY":"270.8072","SITE":"AFWTR","APOAPSIS":"540.590","FILE":"3761360","COUNTRY_CODE":"US","GP_ID":"223719585","ARG_OF_PERICENTER":"89.3060","TIME_SYSTEM":"UTC","ECCENTRICITY":"0.00012260","OBJECT_ID":"2022-141Z","OBJECT_TYPE":"PAYLOAD","MEAN_ELEMENT_THEORY":"SGP4","PERIAPSIS":"538.894","CLASSIFICATION_TYPE":"U","EPOCH":"2023-01-25T19:58:11.724960","DECAY_DATE":null,"EPHEMERIS_TYPE":"0","PERIOD":"95.437","MEAN_MOTION":"15.08840995","MEAN_MOTION_DDOT":"0.0000000000000"}];
